ONEWEB-0012             
1 44057U 19010A   26170.68507807  .00000072  00000+0  15351-3 0  9994
2 44057  87.9095 228.2894 0001886  85.5935 274.5411 13.16595001351894
ONEWEB-0010             
1 44058U 19010B   26170.71040943  .00000004  00000+0 -23469-4 0  9998
2 44058  87.9098 228.2800 0001882 106.6219 253.5119 13.16594797351940
ONEWEB-0008             
1 44059U 19010C   26170.65973819  .00000020  00000+0  18607-4 0  9994
2 44059  87.9092 228.2857 0002330  97.0412 263.0984 13.16596103352056
ONEWEB-0007             
1 44060U 19010D   26170.69682377  .00000208  00000+0  51952-3 0  9993
2 44060  87.9001 258.7212 0001638 100.2704 259.8611 13.15548830351706
ONEWEB-0006             
1 44061U 19010E   26170.70077198  .00000177  00000+0  43494-3 0  9992
2 44061  87.9013 258.6848 0001857 103.8479 256.2858 13.15549035351752
ONEWEB-0011             
1 44062U 19010F   26170.66908396 -.00000039  00000+0 -13689-3 0  9993
2 44062  87.9014 258.7009 0002134 104.9811 255.1556 13.15547622351747
ONEWEB-0013             
1 45131U 20008A   26170.69159420 -.00000499  00000+0 -14869-2 0  9999
2 45131  87.8514  52.3202 0002147  53.4407 306.6917 13.09455188306397
ONEWEB-0017             
1 45132U 20008B   26170.67224420 -.00004392  00000+0 -12622-1 0  9991
2 45132  87.8833  35.7740 0001588  84.5759 275.5549 13.10390406308274
ONEWEB-0020             
1 45133U 20008C   26170.56574923  .00001951  00000+0  55426-2 0  9992
2 45133  87.8829  35.7936 0001876  84.9082 275.2260 13.10475682308659
ONEWEB-0021             
1 45134U 20008D   26170.65717472  .00000043  00000+0  87835-4 0  9993
2 45134  87.8826  35.7914 0001696  81.3995 278.7324 13.10426382308974
ONEWEB-0023             
1 45136U 20008F   26170.66804973 -.00000190  00000+0 -58012-3 0  9998
2 45136  87.8838  35.7713 0001902  79.2979 280.8363 13.10388633308405
ONEWEB-0024             
1 45137U 20008G   26170.56417475 -.00000304  00000+0 -90515-3 0  9996
2 45137  87.8839  35.7844 0001758  84.2268 275.9060 13.10495746308557
ONEWEB-0025             
1 45138U 20008H   26170.71660454 -.00000581  00000+0 -16967-2 0  9996
2 45138  87.8839  35.7439 0002243  90.4043 269.7342 13.10492935308908
ONEWEB-0026             
1 45139U 20008J   26170.29486092 -.00000439  00000+0 -12751-2 0  9993
2 45139  87.8882  20.6487 0001828  90.8427 269.2910 13.11414259311387
ONEWEB-0028             
1 45140U 20008K   26170.65176993  .00000488  00000+0  13403-2 0  9998
2 45140  87.8881  20.5855 0001858  70.4726 289.6602 13.11414654308946
ONEWEB-0032             
1 45141U 20008L   26170.67404926 -.00000774  00000+0 -22531-2 0  9993
2 45141  87.8835  35.7751 0002025  68.7420 291.3923 13.10366221308623
ONEWEB-0033             
1 45142U 20008M   26170.64876561 -.00000775  00000+0 -22530-2 0  9999
2 45142  87.8827  35.7870 0001670 100.2566 259.8750 13.10461561308535
ONEWEB-0035             
1 45143U 20008N   26170.66904125  .00000356  00000+0  98368-3 0  9996
2 45143  87.8832  35.7762 0001793  86.3975 273.7357 13.10381190308263
ONEWEB-0036             
1 45144U 20008P   26170.56852666 -.00000565  00000+0 -16657-2 0  9992
2 45144  87.8844  35.8085 0001916  78.0460 282.0882 13.09979767308672
ONEWEB-0038             
1 45145U 20008Q   26170.30517157 -.00000766  00000+0 -21975-2 0  9990
2 45145  87.8899  20.6553 0000212  35.7330 324.3812 13.11416195310602
ONEWEB-0039             
1 45146U 20008R   26170.65215844  .00001338  00000+0  37917-2 0  9994
2 45146  87.8835  35.7758 0001848  65.0267 295.1052 13.10450725308488
ONEWEB-0040             
1 45147U 20008S   26169.11841411 -.00000576  00000+0 -16850-2 0  9997
2 45147  87.8838  36.0916 0002292  77.9489 282.1895 13.10477044307982
ONEWEB-0043             
1 45149U 20008U   26170.57074160 -.00000560  00000+0 -16394-2 0  9996
2 45149  87.8834  35.7914 0001939  65.4153 294.7176 13.10467315308499
ONEWEB-0044             
1 45150U 20008V   26170.67558538 -.00000867  00000+0 -25194-2 0  9993
2 45150  87.8845  35.7716 0001856  77.7794 282.3541 13.10360344308806
ONEWEB-0045             
1 45151U 20008W   26170.29994895 -.00000503  00000+0 -14546-2 0  9998
2 45151  87.8894  20.6390 0001760  82.2799 277.8529 13.11415324310686
ONEWEB-0047             
1 45152U 20008X   26170.66874872 -.00000205  00000+0 -62236-3 0  9991
2 45152  87.8841  35.7725 0001601  86.6911 273.4400 13.10385433308522
ONEWEB-0048             
1 45153U 20008Y   26170.66388367 -.00000069  00000+0 -23369-3 0  9993
2 45153  87.8828  35.7947 0001722  83.8728 276.2595 13.10398643308133
ONEWEB-0049             
1 45154U 20008Z   26170.66707668 -.00000281  00000+0 -84201-3 0  9991
2 45154  87.8830  35.7831 0002207  80.5498 279.5879 13.10391682308357
ONEWEB-0051             
1 45155U 20008AA  26170.29825911 -.00000532  00000+0 -15375-2 0  9997
2 45155  87.8885  20.6469 0001843  85.6101 274.5238 13.11416703311362
ONEWEB-0052             
1 45156U 20008AB  26170.68747118  .00000638  00000+0  17919-2 0  9994
2 45156  87.8835  35.7647 0002236  80.7275 279.4105 13.10303757308263
